{
  "type": "FeatureCollection",
  "features": [
    {
      "type": "Feature",
      "properties": {
        "norad_id": 36047,
        "name": "COSMOS 2251 DEB",
        "group": "cosmos-2251-debris",
        "lat": -49.6339203413086,
        "lon": 166.49596652373137,
        "alt_km": 588.4885885921913,
        "timestamp": "2025-12-16T08:59:43.558642+00:00",
        "meta_object_name": "COSMOS 2251 DEB",
        "meta_object_id": "1993-036AXJ",
        "meta_epoch": "2025-12-14T22:15:27.613152",
        "meta_mean_motion": 14.96069121,
        "meta_eccentricity": 0.00083362,
        "meta_inclination": 74.0356,
        "meta_ra_of_asc_node": 329.7384,
        "meta_arg_of_pericenter": 357.0105,
        "meta_mean_anomaly": 3.1028,
        "meta_ephemeris_type": 0,
        "meta_classification_type": "U",
        "meta_norad_cat_id": 36047,
        "meta_element_set_no": 999,
        "meta_rev_at_epoch": 65972,
        "meta_bstar": 0.0012898092,
        "meta_mean_motion_dot": 0.00014498,
        "meta_mean_motion_ddot": 0,
        "tle_line1": "1 36047U 93036AXJ 25348.92740293  .00014498  00000+0  12898-2 0  9994",
        "tle_line2": "2 36047  74.0356 329.7384 0008336 357.0105   3.1028 14.96069121659726"
      },
      "geometry": {
        "type": "Point",
        "coordinates": [
          166.49596652373137,
          -49.6339203413086
        ]
      }
    },
    {
      "type": "Feature",
      "properties": {
        "norad_id": 36048,
        "name": "COSMOS 2251 DEB",
        "group": "cosmos-2251-debris",
        "lat": 55.340797332763415,
        "lon": 88.17877217393257,
        "alt_km": 774.4082182229686,
        "timestamp": "2025-12-16T08:59:43.558652+00:00",
        "meta_object_name": "COSMOS 2251 DEB",
        "meta_object_id": "1993-036AXK",
        "meta_epoch": "2025-12-14T19:49:30.529920",
        "meta_mean_motion": 14.37856281,
        "meta_eccentricity": 0.00267154,
        "meta_inclination": 74.057,
        "meta_ra_of_asc_node": 295.4478,
        "meta_arg_of_pericenter": 345.0601,
        "meta_mean_anomaly": 42.267,
        "meta_ephemeris_type": 0,
        "meta_classification_type": "U",
        "meta_norad_cat_id": 36048,
        "meta_element_set_no": 999,
        "meta_rev_at_epoch": 85532,
        "meta_bstar": 0.000348713,
        "meta_mean_motion_dot": 1.03e-05,
        "meta_mean_motion_ddot": 0,
        "tle_line1": "1 36048U 93036AXK 25348.82604780  .00001030  00000+0  34871-3 0  9998",
        "tle_line2": "2 36048  74.0570 295.4478 0026715 345.0601  42.2670 14.37856281855324"
      },
      "geometry": {
        "type": "Point",
        "coordinates": [
          88.17877217393257,
          55.340797332763415
        ]
      }
    },
    {
      "type": "Feature",
      "properties": {
        "norad_id": 36049,
        "name": "COSMOS 2251 DEB",
        "group": "cosmos-2251-debris",
        "lat": -4.796409179847025,
        "lon": -66.40348491443828,
        "alt_km": 682.0232916231189,
        "timestamp": "2025-12-16T08:59:43.558662+00:00",
        "meta_object_name": "COSMOS 2251 DEB",
        "meta_object_id": "1993-036AXL",
        "meta_epoch": "2025-12-14T15:06:03.977280",
        "meta_mean_motion": 14.62178283,
        "meta_eccentricity": 0.00106433,
        "meta_inclination": 74.0297,
        "meta_ra_of_asc_node": 115.562,
        "meta_arg_of_pericenter": 202.4764,
        "meta_mean_anomaly": 157.5938,
        "meta_ephemeris_type": 0,
        "meta_classification_type": "U",
        "meta_norad_cat_id": 36049,
        "meta_element_set_no": 999,
        "meta_rev_at_epoch": 85392,
        "meta_bstar": 0.0012373854,
        "meta_mean_motion_dot": 6.209e-05,
        "meta_mean_motion_ddot": 0,
        "tle_line1": "1 36049U 93036AXL 25348.62921270  .00006209  00000+0  12374-2 0  9999",
        "tle_line2": "2 36049  74.0297 115.5620 0010643 202.4764 157.5938 14.62178283853929"
      },
      "geometry": {
        "type": "Point",
        "coordinates": [
          -66.40348491443828,
          -4.796409179847025
        ]
      }
    },
    {
      "type": "Feature",
      "properties": {
        "norad_id": 36050,
        "name": "COSMOS 2251 DEB",
        "group": "cosmos-2251-debris",
        "lat": 42.95312733809719,
        "lon": -157.91670320596089,
        "alt_km": 606.5255585682144,
        "timestamp": "2025-12-16T08:59:43.558672+00:00",
        "meta_object_name": "COSMOS 2251 DEB",
        "meta_object_id": "1993-036AXM",
        "meta_epoch": "2025-12-15T21:35:48.459552",
        "meta_mean_motion": 15.01080492,
        "meta_eccentricity": 0.00887608,
        "meta_inclination": 74.0305,
        "meta_ra_of_asc_node": 187.588,
        "meta_arg_of_pericenter": 266.4769,
        "meta_mean_anomaly": 92.6264,
        "meta_ephemeris_type": 0,
        "meta_classification_type": "U",
        "meta_norad_cat_id": 36050,
        "meta_element_set_no": 999,
        "meta_rev_at_epoch": 67082,
        "meta_bstar": 0.00042445305,
        "meta_mean_motion_dot": 5.866e-05,
        "meta_mean_motion_ddot": 0,
        "tle_line1": "1 36050U 93036AXM 25349.89986643  .00005866  00000+0  42445-3 0  9997",
        "tle_line2": "2 36050  74.0305 187.5880 0088760 266.4769  92.6264 15.01080492670823"
      },
      "geometry": {
        "type": "Point",
        "coordinates": [
          -157.91670320596089,
          42.95312733809719
        ]
      }
    },
    {
      "type": "Feature",
      "properties": {
        "norad_id": 36053,
        "name": "COSMOS 2251 DEB",
        "group": "cosmos-2251-debris",
        "lat": 71.93256202144832,
        "lon": -96.80249661497761,
        "alt_km": 671.8067685776414,
        "timestamp": "2025-12-16T08:59:43.558682+00:00",
        "meta_object_name": "COSMOS 2251 DEB",
        "meta_object_id": "1993-036AXQ",
        "meta_epoch": "2025-12-14T10:24:52.276896",
        "meta_mean_motion": 14.57209114,
        "meta_eccentricity": 0.00325891,
        "meta_inclination": 73.8698,
        "meta_ra_of_asc_node": 149.4338,
        "meta_arg_of_pericenter": 97.9449,
        "meta_mean_anomaly": 262.5415,
        "meta_ephemeris_type": 0,
        "meta_classification_type": "U",
        "meta_norad_cat_id": 36053,
        "meta_element_set_no": 999,
        "meta_rev_at_epoch": 87469,
        "meta_bstar": 0.0016910413,
        "meta_mean_motion_dot": 7.671e-05,
        "meta_mean_motion_ddot": 0,
        "tle_line1": "1 36053U 93036AXQ 25348.43393839  .00007671  00000+0  16910-2 0  9991",
        "tle_line2": "2 36053  73.8698 149.4338 0032589  97.9449 262.5415 14.57209114874694"
      },
      "geometry": {
        "type": "Point",
        "coordinates": [
          -96.80249661497761,
          71.93256202144832
        ]
      }
    },
    {
      "type": "Feature",
      "properties": {
        "norad_id": 36058,
        "name": "COSMOS 2251 DEB",
        "group": "cosmos-2251-debris",
        "lat": -60.349519337300045,
        "lon": -123.25032466791457,
        "alt_km": 701.0452682633031,
        "timestamp": "2025-12-16T08:59:43.558715+00:00",
        "meta_object_name": "COSMOS 2251 DEB",
        "meta_object_id": "1993-036AXV",
        "meta_epoch": "2025-12-13T20:37:32.134944",
        "meta_mean_motion": 14.58701231,
        "meta_eccentricity": 0.00444905,
        "meta_inclination": 74.0239,
        "meta_ra_of_asc_node": 31.3248,
        "meta_arg_of_pericenter": 165.3965,
        "meta_mean_anomaly": 194.8498,
        "meta_ephemeris_type": 0,
        "meta_classification_type": "U",
        "meta_norad_cat_id": 36058,
        "meta_element_set_no": 999,
        "meta_rev_at_epoch": 66127,
        "meta_bstar": 0.00064390107,
        "meta_mean_motion_dot": 3.016e-05,
        "meta_mean_motion_ddot": 0,
        "tle_line1": "1 36058U 93036AXV 25347.85939971  .00003016  00000+0  64390-3 0  9999",
        "tle_line2": "2 36058  74.0239  31.3248 0044490 165.3965 194.8498 14.58701231661273"
      },
      "geometry": {
        "type": "Point",
        "coordinates": [
          -123.25032466791457,
          -60.349519337300045
        ]
      }
    },
    {
      "type": "Feature",
      "properties": {
        "norad_id": 36060,
        "name": "COSMOS 2251 DEB",
        "group": "cosmos-2251-debris",
        "lat": -65.86221314197618,
        "lon": -171.89962911120918,
        "alt_km": 749.8627693574554,
        "timestamp": "2025-12-16T08:59:43.558726+00:00",
        "meta_object_name": "COSMOS 2251 DEB",
        "meta_object_id": "1993-036AXX",
        "meta_epoch": "2025-12-15T08:21:03.672288",
        "meta_mean_motion": 14.42005559,
        "meta_eccentricity": 0.00153723,
        "meta_inclination": 74.0285,
        "meta_ra_of_asc_node": 229.7294,
        "meta_arg_of_pericenter": 326.3901,
        "meta_mean_anomaly": 33.6278,
        "meta_ephemeris_type": 0,
        "meta_classification_type": "U",
        "meta_norad_cat_id": 36060,
        "meta_element_set_no": 999,
        "meta_rev_at_epoch": 85047,
        "meta_bstar": 0.00032938316,
        "meta_mean_motion_dot": 1.056e-05,
        "meta_mean_motion_ddot": 0,
        "tle_line1": "1 36060U 93036AXX 25349.34795917  .00001056  00000+0  32938-3 0  9993",
        "tle_line2": "2 36060  74.0285 229.7294 0015372 326.3901  33.6278 14.42005559850478"
      },
      "geometry": {
        "type": "Point",
        "coordinates": [
          -171.89962911120918,
          -65.86221314197618
        ]
      }
    }
  ]
}